[{"OBJECT_NAME":"ONEWEB-0392","OBJECT_ID":"2021-132D","EPOCH":"2026-03-03T10:52:53.081760","MEAN_MOTION":13.17648361,"ECCENTRICITY":0.0001879,"INCLINATION":87.9152,"RA_OF_ASC_NODE":26.8348,"ARG_OF_PERICENTER":70.0404,"MEAN_ANOMALY":290.093,"EPHEMERIS_TYPE":0,"CLASSIFICATION_TYPE":"U","NORAD_CAT_ID":50472,"ELEMENT_SET_NO":999,"REV_AT_EPOCH":20419,"BSTAR":2.3541e-5,"MEAN_MOTION_DOT":2.2e-7,"MEAN_MOTION_DDOT":0},{"OBJECT_NAME":"ONEWEB-0393","OBJECT_ID":"2021-132E","EPOCH":"2026-03-03T10:14:11.506848","MEAN_MOTION":13.17650412,"ECCENTRICITY":0.0001876,"INCLINATION":87.915,"RA_OF_ASC_NODE":26.8637,"ARG_OF_PERICENTER":74.889,"MEAN_ANOMALY":285.2449,"EPHEMERIS_TYPE":0,"CLASSIFICATION_TYPE":"U","NORAD_CAT_ID":50473,"ELEMENT_SET_NO":999,"REV_AT_EPOCH":20418,"BSTAR":9.6015e-6,"MEAN_MOTION_DOT":1.7e-7,"MEAN_MOTION_DDOT":0},{"OBJECT_NAME":"ONEWEB-0394","OBJECT_ID":"2021-132F","EPOCH":"2026-03-03T07:49:27.797088","MEAN_MOTION":13.18686059,"ECCENTRICITY":0.0001726,"INCLINATION":87.9248,"RA_OF_ASC_NODE":356.4618,"ARG_OF_PERICENTER":73.7456,"MEAN_ANOMALY":286.3866,"EPHEMERIS_TYPE":0,"CLASSIFICATION_TYPE":"U","NORAD_CAT_ID":50474,"ELEMENT_SET_NO":999,"REV_AT_EPOCH":20764,"BSTAR":8.3177e-5,"MEAN_MOTION_DOT":4.6e-7,"MEAN_MOTION_DDOT":0},{"OBJECT_NAME":"ONEWEB-0395","OBJECT_ID":"2021-132G","EPOCH":"2026-03-03T11:54:15.053184","MEAN_MOTION":13.11415913,"ECCENTRICITY":0.0002066,"INCLINATION":87.8848,"RA_OF_ASC_NODE":42.0886,"ARG_OF_PERICENTER":80.734,"MEAN_ANOMALY":279.4021,"EPHEMERIS_TYPE":0,"CLASSIFICATION_TYPE":"U","NORAD_CAT_ID":50475,"ELEMENT_SET_NO":999,"REV_AT_EPOCH":20186,"BSTAR":-0.0011284,"MEAN_MOTION_DOT":-3.87e-6,"MEAN_MOTION_DDOT":0},{"OBJECT_NAME":"ONEWEB-0396","OBJECT_ID":"2021-132H","EPOCH":"2026-03-03T07:39:57.758400","MEAN_MOTION":13.18685895,"ECCENTRICITY":0.0001768,"INCLINATION":87.925,"RA_OF_ASC_NODE":356.4748,"ARG_OF_PERICENTER":75.163,"MEAN_ANOMALY":284.9698,"EPHEMERIS_TYPE":0,"CLASSIFICATION_TYPE":"U","NORAD_CAT_ID":50476,"ELEMENT_SET_NO":999,"REV_AT_EPOCH":20768,"BSTAR":0.00016802,"MEAN_MOTION_DOT":7.9e-7,"MEAN_MOTION_DDOT":0},{"OBJECT_NAME":"ONEWEB-0397","OBJECT_ID":"2021-132J","EPOCH":"2026-03-03T08:01:20.228160","MEAN_MOTION":13.18685492,"ECCENTRICITY":0.0001609,"INCLINATION":87.9249,"RA_OF_ASC_NODE":356.4718,"ARG_OF_PERICENTER":78.026,"MEAN_ANOMALY":282.1053,"EPHEMERIS_TYPE":0,"CLASSIFICATION_TYPE":"U","NORAD_CAT_ID":50477,"ELEMENT_SET_NO":999,"REV_AT_EPOCH":20766,"BSTAR":-4.99e-5,"MEAN_MOTION_DOT":-7.0e-8,"MEAN_MOTION_DDOT":0},{"OBJECT_NAME":"ONEWEB-0398","OBJECT_ID":"2021-132K","EPOCH":"2026-03-03T11:07:53.476896","MEAN_MOTION":13.11416378,"ECCENTRICITY":0.000225,"INCLINATION":87.8858,"RA_OF_ASC_NODE":42.0751,"ARG_OF_PERICENTER":82.9236,"MEAN_ANOMALY":277.2147,"EPHEMERIS_TYPE":0,"CLASSIFICATION_TYPE":"U","NORAD_CAT_ID":50478,"ELEMENT_SET_NO":999,"REV_AT_EPOCH":20175,"BSTAR":0.0015004,"MEAN_MOTION_DOT":5.44e-6,"MEAN_MOTION_DDOT":0},{"OBJECT_NAME":"ONEWEB-0399","OBJECT_ID":"2021-132L","EPOCH":"2026-03-03T10:48:20.944224","MEAN_MOTION":13.11417922,"ECCENTRICITY":0.0001584,"INCLINATION":87.8857,"RA_OF_ASC_NODE":42.0873,"ARG_OF_PERICENTER":69.0749,"MEAN_ANOMALY":291.0549,"EPHEMERIS_TYPE":0,"CLASSIFICATION_TYPE":"U","NORAD_CAT_ID":50479,"ELEMENT_SET_NO":999,"REV_AT_EPOCH":20174,"BSTAR":0.00034835,"MEAN_MOTION_DOT":1.36e-6,"MEAN_MOTION_DDOT":0},{"OBJECT_NAME":"ONEWEB-0400","OBJECT_ID":"2021-132M","EPOCH":"2026-03-03T07:30:27.845856","MEAN_MOTION":13.18686224,"ECCENTRICITY":0.000201,"INCLINATION":87.925,"RA_OF_ASC_NODE":356.4661,"ARG_OF_PERICENTER":79.7041,"MEAN_ANOMALY":280.4317,"EPHEMERIS_TYPE":0,"CLASSIFICATION_TYPE":"U","NORAD_CAT_ID":50480,"ELEMENT_SET_NO":999,"REV_AT_EPOCH":20765,"BSTAR":0.00019997,"MEAN_MOTION_DOT":9.2e-7,"MEAN_MOTION_DDOT":0},{"OBJECT_NAME":"ONEWEB-0401","OBJECT_ID":"2021-132N","EPOCH":"2026-03-03T08:34:34.598496","MEAN_MOTION":13.18687045,"ECCENTRICITY":0.0001639,"INCLINATION":87.9252,"RA_OF_ASC_NODE":356.4531,"ARG_OF_PERICENTER":81.7968,"MEAN_ANOMALY":278.335,"EPHEMERIS_TYPE":0,"CLASSIFICATION_TYPE":"U","NORAD_CAT_ID":50481,"ELEMENT_SET_NO":999,"REV_AT_EPOCH":20766,"BSTAR":-9.9227e-6,"MEAN_MOTION_DOT":9.0e-8,"MEAN_MOTION_DDOT":0},{"OBJECT_NAME":"ONEWEB-0402","OBJECT_ID":"2021-132P","EPOCH":"2026-03-03T07:42:19.750752","MEAN_MOTION":13.18686417,"ECCENTRICITY":0.0001354,"INCLINATION":87.9249,"RA_OF_ASC_NODE":356.452,"ARG_OF_PERICENTER":89.8596,"MEAN_ANOMALY":270.2691,"EPHEMERIS_TYPE":0,"CLASSIFICATION_TYPE":"U","NORAD_CAT_ID":50482,"ELEMENT_SET_NO":999,"REV_AT_EPOCH":20768,"BSTAR":8.6104e-5,"MEAN_MOTION_DOT":4.7e-7,"MEAN_MOTION_DDOT":0},{"OBJECT_NAME":"ONEWEB-0403","OBJECT_ID":"2021-132Q","EPOCH":"2026-03-03T08:17:57.945984","MEAN_MOTION":13.18685831,"ECCENTRICITY":0.000185,"INCLINATION":87.9251,"RA_OF_ASC_NODE":356.4702,"ARG_OF_PERICENTER":75.9325,"MEAN_ANOMALY":284.2012,"EPHEMERIS_TYPE":0,"CLASSIFICATION_TYPE":"U","NORAD_CAT_ID":50483,"ELEMENT_SET_NO":999,"REV_AT_EPOCH":20764,"BSTAR":-5.1706e-5,"MEAN_MOTION_DOT":-7.0e-8,"MEAN_MOTION_DDOT":0},{"OBJECT_NAME":"ONEWEB-0404","OBJECT_ID":"2021-132R","EPOCH":"2026-03-03T10:21:28.529280","MEAN_MOTION":13.11418077,"ECCENTRICITY":0.000185,"INCLINATION":87.8849,"RA_OF_ASC_NODE":42.0988,"ARG_OF_PERICENTER":73.4646,"MEAN_ANOMALY":286.6685,"EPHEMERIS_TYPE":0,"CLASSIFICATION_TYPE":"U","NORAD_CAT_ID":50484,"ELEMENT_SET_NO":999,"REV_AT_EPOCH":20183,"BSTAR":-0.0013897,"MEAN_MOTION_DOT":-4.8e-6,"MEAN_MOTION_DDOT":0},{"OBJECT_NAME":"ONEWEB-0405","OBJECT_ID":"2021-132S","EPOCH":"2026-03-02T01:41:43.195776","MEAN_MOTION":13.18769016,"ECCENTRICITY":0.00029583,"INCLINATION":87.9247,"RA_OF_ASC_NODE":356.7066,"ARG_OF_PERICENTER":94.2242,"MEAN_ANOMALY":265.9228,"EPHEMERIS_TYPE":0,"CLASSIFICATION_TYPE":"U","NORAD_CAT_ID":50485,"ELEMENT_SET_NO":999,"REV_AT_EPOCH":20787,"BSTAR":0.02409973,"MEAN_MOTION_DOT":9.536e-5,"MEAN_MOTION_DDOT":0},{"OBJECT_NAME":"ONEWEB-0406","OBJECT_ID":"2021-132T","EPOCH":"2026-03-03T08:25:04.831968","MEAN_MOTION":13.18687592,"ECCENTRICITY":0.0001849,"INCLINATION":87.9247,"RA_OF_ASC_NODE":356.4788,"ARG_OF_PERICENTER":63.4684,"MEAN_ANOMALY":296.6638,"EPHEMERIS_TYPE":0,"CLASSIFICATION_TYPE":"U","NORAD_CAT_ID":50486,"ELEMENT_SET_NO":999,"REV_AT_EPOCH":20767,"BSTAR":8.0442e-6,"MEAN_MOTION_DOT":1.6e-7,"MEAN_MOTION_DDOT":0},{"OBJECT_NAME":"ONEWEB-0407","OBJECT_ID":"2021-132U","EPOCH":"2026-03-03T08:15:35.002368","MEAN_MOTION":13.18686357,"ECCENTRICITY":0.0001769,"INCLINATION":87.925,"RA_OF_ASC_NODE":356.4634,"ARG_OF_PERICENTER":84.1198,"MEAN_ANOMALY":276.0136,"EPHEMERIS_TYPE":0,"CLASSIFICATION_TYPE":"U","NORAD_CAT_ID":50487,"ELEMENT_SET_NO":999,"REV_AT_EPOCH":20761,"BSTAR":-1.689e-5,"MEAN_MOTION_DOT":6.0e-8,"MEAN_MOTION_DDOT":0},{"OBJECT_NAME":"ONEWEB-0409","OBJECT_ID":"2021-132V","EPOCH":"2026-03-03T10:19:02.278272","MEAN_MOTION":13.11419035,"ECCENTRICITY":0.0001942,"INCLINATION":87.8857,"RA_OF_ASC_NODE":42.0797,"ARG_OF_PERICENTER":75.8069,"MEAN_ANOMALY":284.3275,"EPHEMERIS_TYPE":0,"CLASSIFICATION_TYPE":"U","NORAD_CAT_ID":50488,"ELEMENT_SET_NO":999,"REV_AT_EPOCH":20172,"BSTAR":-0.0014981,"MEAN_MOTION_DOT":-5.18e-6,"MEAN_MOTION_DDOT":0}]
