ONEWEB-0392             
1 50472U 21132D   26062.45339215  .00000022  00000+0  23541-4 0  9997
2 50472  87.9152  26.8348 0001879  70.0404 290.0930 13.17648361204192
ONEWEB-0393             
1 50473U 21132E   26062.42652207  .00000017  00000+0  96015-5 0  9995
2 50473  87.9150  26.8637 0001876  74.8890 285.2449 13.17650412204180
ONEWEB-0394             
1 50474U 21132F   26062.32601617  .00000046  00000+0  83177-4 0  9990
2 50474  87.9248 356.4618 0001726  73.7456 286.3866 13.18686059207646
ONEWEB-0395             
1 50475U 21132G   26062.49600756 -.00000387  00000+0 -11284-2 0  9990
2 50475  87.8848  42.0886 0002066  80.7340 279.4021 13.11415913201861
ONEWEB-0396             
1 50476U 21132H   26062.31941850  .00000079  00000+0  16802-3 0  9993
2 50476  87.9250 356.4748 0001768  75.1630 284.9698 13.18685895207689
ONEWEB-0397             
1 50477U 21132J   26062.33426190 -.00000007  00000+0 -49900-4 0  9990
2 50477  87.9249 356.4718 0001609  78.0260 282.1053 13.18685492207666
ONEWEB-0398             
1 50478U 21132K   26062.46381339  .00000544  00000+0  15004-2 0  9990
2 50478  87.8858  42.0751 0002250  82.9236 277.2147 13.11416378201758
ONEWEB-0399             
1 50479U 21132L   26062.45024241  .00000136  00000+0  34835-3 0  9997
2 50479  87.8857  42.0873 0001584  69.0749 291.0549 13.11417922201742
ONEWEB-0400             
1 50480U 21132M   26062.31282229  .00000092  00000+0  19997-3 0  9999
2 50480  87.9250 356.4661 0002010  79.7041 280.4317 13.18686224207658
ONEWEB-0401             
1 50481U 21132N   26062.35734489  .00000009  00000+0 -99227-5 0  9999
2 50481  87.9252 356.4531 0001639  81.7968 278.3350 13.18687045207660
ONEWEB-0402             
1 50482U 21132P   26062.32106193  .00000047  00000+0  86104-4 0  9992
2 50482  87.9249 356.4520 0001354  89.8596 270.2691 13.18686417207688
ONEWEB-0403             
1 50483U 21132Q   26062.34580956 -.00000007  00000+0 -51706-4 0  9996
2 50483  87.9251 356.4702 0001850  75.9325 284.2012 13.18685831207648
ONEWEB-0404             
1 50484U 21132R   26062.43158020 -.00000480  00000+0 -13897-2 0  9992
2 50484  87.8849  42.0988 0001850  73.4646 286.6685 13.11418077201830
ONEWEB-0405             
1 50485U 21132S   26061.07063884  .00009536  00000+0  24100-1 0  9992
2 50485  87.9247 356.7066 0002958  94.2242 265.9228 13.18769016207871
ONEWEB-0406             
1 50486U 21132T   26062.35075037  .00000016  00000+0  80442-5 0  9997
2 50486  87.9247 356.4788 0001849  63.4684 296.6638 13.18687592207678
ONEWEB-0407             
1 50487U 21132U   26062.34415512  .00000006  00000+0 -16890-4 0  9998
2 50487  87.9250 356.4634 0001769  84.1198 276.0136 13.18686357207611
ONEWEB-0409             
1 50488U 21132V   26062.42988748 -.00000518  00000+0 -14981-2 0  9990
2 50488  87.8857  42.0797 0001942  75.8069 284.3275 13.11419035201721
